start=new Date('2022-11-01T00:00:00.000Z').valueOf();
sats=[{"ELEMENT_SET_NO":"999","TLE_LINE1":"1 53414U 22097AC  22305.00002315 -.00028039  00000-0 -17496-2 0  9993","EPHEMERIS_TYPE":"0","PERIAPSIS":"538.574","BSTAR":"-0.00174960000000","REF_FRAME":"TEME","ECCENTRICITY":"0.00016140","RCS_SIZE":"LARGE","DECAY_DATE":null,"NORAD_CAT_ID":"53414","RA_OF_ASC_NODE":"211.9657","GP_ID":"216589460","MEAN_MOTION_DDOT":"0.0000000000000","EPOCH":"2022-11-01T00:00:02.000160","MEAN_ELEMENT_THEORY":"SGP4","OBJECT_TYPE":"PAYLOAD","ARG_OF_PERICENTER":"62.8028","MEAN_ANOMALY":"34.0847","SITE":"AFETR","TIME_SYSTEM":"UTC","FILE":"3639260","SEMIMAJOR_AXIS":"6917.825","LAUNCH_DATE":"2022-08-10","MEAN_MOTION":"15.08857972","CENTER_NAME":"EARTH","APOAPSIS":"540.807","OBJECT_NAME":"STARLINK-4304","TLE_LINE2":"2 53414  53.2139 211.9657 0001614  62.8028  34.0847 15.08857972 13272","OBJECT_ID":"2022-097AC","INCLINATION":"53.2139","MEAN_MOTION_DOT":"-0.00028039","PERIOD":"95.436","CLASSIFICATION_TYPE":"U","REV_AT_EPOCH":"1327","COUNTRY_CODE":"US"},{"TIME_SYSTEM":"UTC","SITE":"AFETR","MEAN_ANOMALY":"52.5969","FILE":"3639283","SEMIMAJOR_AXIS":"6917.799","OBJECT_TYPE":"PAYLOAD","ARG_OF_PERICENTER":"64.2819","CENTER_NAME":"EARTH","MEAN_MOTION":"15.08866585","APOAPSIS":"540.693","LAUNCH_DATE":"2022-08-10","OBJECT_ID":"2022-097AD","INCLINATION":"53.2140","MEAN_MOTION_DOT":"-0.00047443","TLE_LINE2":"2 53415  53.2140 211.9655 0001487  64.2819  52.5969 15.08866585 13275","OBJECT_NAME":"STARLINK-4479","CLASSIFICATION_TYPE":"U","COUNTRY_CODE":"US","REV_AT_EPOCH":"1327","PERIOD":"95.436","PERIAPSIS":"538.635","EPHEMERIS_TYPE":"0","BSTAR":"-0.00298040000000","REF_FRAME":"TEME","ELEMENT_SET_NO":"999","TLE_LINE1":"1 53415U 22097AD  22305.00002315 -.00047443  00000-0 -29804-2 0  9990","DECAY_DATE":null,"NORAD_CAT_ID":"53415","RCS_SIZE":"LARGE","ECCENTRICITY":"0.00014870","GP_ID":"216589362","MEAN_MOTION_DDOT":"0.0000000000000","EPOCH":"2022-11-01T00:00:02.000160","RA_OF_ASC_NODE":"211.9655","MEAN_ELEMENT_THEORY":"SGP4"},{"ECCENTRICITY":"0.00018420","NORAD_CAT_ID":"53416","DECAY_DATE":null,"RCS_SIZE":"LARGE","ELEMENT_SET_NO":"999","TLE_LINE1":"1 53416U 22097AE  22305.00002315 -.00029301  00000-0 -18297-2 0  9998","PERIAPSIS":"538.428","EPHEMERIS_TYPE":"0","REF_FRAME":"TEME","BSTAR":"-0.00182970000000","MEAN_ELEMENT_THEORY":"SGP4","RA_OF_ASC_NODE":"211.9541","GP_ID":"216588871","MEAN_MOTION_DDOT":"0.0000000000000","EPOCH":"2022-11-01T00:00:02.000160","LAUNCH_DATE":"2022-08-10","CENTER_NAME":"EARTH","MEAN_MOTION":"15.08853990","APOAPSIS":"540.977","OBJECT_TYPE":"PAYLOAD","ARG_OF_PERICENTER":"47.3305","TIME_SYSTEM":"UTC","SITE":"AFETR","MEAN_ANOMALY":"124.3863","SEMIMAJOR_AXIS":"6917.838","FILE":"3639283","PERIOD":"95.437","CLASSIFICATION_TYPE":"U","COUNTRY_CODE":"US","REV_AT_EPOCH":"1327","TLE_LINE2":"2 53416  53.2171 211.9541 0001842  47.3305 124.3863 15.08853990 13278","OBJECT_NAME":"STARLINK-4480","OBJECT_ID":"2022-097AE","MEAN_MOTION_DOT":"-0.00029301","INCLINATION":"53.2171"},{"OBJECT_TYPE":"PAYLOAD","ARG_OF_PERICENTER":"41.5702","TIME_SYSTEM":"UTC","SITE":"AFETR","MEAN_ANOMALY":"95.4416","SEMIMAJOR_AXIS":"6917.882","FILE":"3639283","LAUNCH_DATE":"2022-08-10","CENTER_NAME":"EARTH","MEAN_MOTION":"15.08839382","APOAPSIS":"541.055","TLE_LINE2":"2 53417  53.2163 211.9542 0001890  41.5702  95.4416 15.08839382 13272","OBJECT_NAME":"STARLINK-4484","OBJECT_ID":"2022-097AF","INCLINATION":"53.2163","MEAN_MOTION_DOT":"-0.00018194","PERIOD":"95.438","CLASSIFICATION_TYPE":"U","COUNTRY_CODE":"US","REV_AT_EPOCH":"1327","ELEMENT_SET_NO":"999","TLE_LINE1":"1 53417U 22097AF  22305.00002315 -.00018194  00000-0 -11279-2 0  9990","PERIAPSIS":"538.440","EPHEMERIS_TYPE":"0","BSTAR":"-0.00112790000000","REF_FRAME":"TEME","ECCENTRICITY":"0.00018900","NORAD_CAT_ID":"53417","DECAY_DATE":null,"RCS_SIZE":"LARGE","RA_OF_ASC_NODE":"211.9542","MEAN_MOTION_DDOT":"0.0000000000000","GP_ID":"216589364","EPOCH":"2022-11-01T00:00:02.000160","MEAN_ELEMENT_THEORY":"SGP4"},{"FILE":"3639283","SEMIMAJOR_AXIS":"6863.962","TIME_SYSTEM":"UTC","SITE":"AFETR","MEAN_ANOMALY":"29.7761","OBJECT_TYPE":"PAYLOAD","ARG_OF_PERICENTER":"88.1988","APOAPSIS":"486.743","MEAN_MOTION":"15.26653415","CENTER_NAME":"EARTH","LAUNCH_DATE":"2022-08-10","INCLINATION":"53.2173","MEAN_MOTION_DOT":"-0.01136508","OBJECT_ID":"2022-097AG","OBJECT_NAME":"STARLINK-4481","TLE_LINE2":"2 53418  53.2173 201.9788 0001334  88.1988  29.7761 15.26653415 13411","REV_AT_EPOCH":"1341","COUNTRY_CODE":"US","CLASSIFICATION_TYPE":"U","PERIOD":"94.324","REF_FRAME":"TEME","BSTAR":"-0.04695400000000","PERIAPSIS":"484.911","EPHEMERIS_TYPE":"0","TLE_LINE1":"1 53418U 22097AG  22305.00002315 -.01136508  00000-0 -46954-1 0  9999","ELEMENT_SET_NO":"999","RCS_SIZE":"LARGE","NORAD_CAT_ID":"53418","DECAY_DATE":null,"ECCENTRICITY":"0.00013340","EPOCH":"2022-11-01T00:00:02.000160","MEAN_MOTION_DDOT":"0.0000000000000","GP_ID":"216589367","RA_OF_ASC_NODE":"201.9788","MEAN_ELEMENT_THEORY":"SGP4"},{"LAUNCH_DATE":"2022-08-10","APOAPSIS":"540.980","CENTER_NAME":"EARTH","MEAN_MOTION":"15.08860404","ARG_OF_PERICENTER":"48.5553","OBJECT_TYPE":"PAYLOAD","SEMIMAJOR_AXIS":"6917.818","FILE":"3639255","SITE":"AFETR","TIME_SYSTEM":"UTC","MEAN_ANOMALY":"108.3528","PERIOD":"95.436","COUNTRY_CODE":"US","REV_AT_EPOCH":"1327","CLASSIFICATION_TYPE":"U","TLE_LINE2":"2 53419  53.2171 211.9548 0001875  48.5553 108.3528 15.08860404 13270","OBJECT_NAME":"STARLINK-4476","MEAN_MOTION_DOT":"-0.00048219","INCLINATION":"53.2171","OBJECT_ID":"2022-097AH","ECCENTRICITY":"0.00018750","NORAD_CAT_ID":"53419","DECAY_DATE":null,"RCS_SIZE":"LARGE","TLE_LINE1":"1 53419U 22097AH  22305.00002315 -.00048219  00000-0 -30302-2 0  9991","ELEMENT_SET_NO":"999","REF_FRAME":"TEME","BSTAR":"-0.00303020000000","EPHEMERIS_TYPE":"0","PERIAPSIS":"538.386","MEAN_ELEMENT_THEORY":"SGP4","RA_OF_ASC_NODE":"211.9548","EPOCH":"2022-11-01T00:00:02.000160","MEAN_MOTION_DDOT":"0.0000000000000","GP_ID":"216588873"},{"MEAN_ELEMENT_THEORY":"SGP4","RA_OF_ASC_NODE":"211.9540","EPOCH":"2022-11-01T00:00:02.000160","GP_ID":"216588885","MEAN_MOTION_DDOT":"0.0000000000000","ECCENTRICITY":"0.00016280","NORAD_CAT_ID":"53420","DECAY_DATE":null,"RCS_SIZE":"LARGE","TLE_LINE1":"1 53420U 22097AJ  22305.00002315 -.00066170  00000-0 -41765-2 0  9994","ELEMENT_SET_NO":"999","REF_FRAME":"TEME","BSTAR":"-0.00417650000000","PERIAPSIS":"538.580","EPHEMERIS_TYPE":"0","PERIOD":"95.437","COUNTRY_CODE":"US","REV_AT_EPOCH":"1327","CLASSIFICATION_TYPE":"U","TLE_LINE2":"2 53420  53.2177 211.9540 0001628  52.6840 164.3192 15.08852849 13274","OBJECT_NAME":"STARLINK-4552","MEAN_MOTION_DOT":"-0.00066170","INCLINATION":"53.2177","OBJECT_ID":"2022-097AJ","LAUNCH_DATE":"2022-08-10","APOAPSIS":"540.832","CENTER_NAME":"EARTH","MEAN_MOTION":"15.08852849","ARG_OF_PERICENTER":"52.6840","OBJECT_TYPE":"PAYLOAD","SEMIMAJOR_AXIS":"6917.841","FILE":"3639255","SITE":"AFETR","TIME_SYSTEM":"UTC","MEAN_ANOMALY":"164.3192"},{"REF_FRAME":"TEME","BSTAR":"-0.00175060000000","EPHEMERIS_TYPE":"0","PERIAPSIS":"538.479","TLE_LINE1":"1 53421U 22097AK  22305.00002315 -.00028044  00000-0 -17506-2 0  9999","ELEMENT_SET_NO":"999","RCS_SIZE":"LARGE","NORAD_CAT_ID":"53421","DECAY_DATE":null,"ECCENTRICITY":"0.00018130","EPOCH":"2022-11-01T00:00:02.000160","MEAN_MOTION_DDOT":"0.0000000000000","GP_ID":"216589380","RA_OF_ASC_NODE":"211.9537","MEAN_ELEMENT_THEORY":"SGP4","SEMIMAJOR_AXIS":"6917.869","FILE":"3639255","MEAN_ANOMALY":"132.6251","SITE":"AFETR","TIME_SYSTEM":"UTC","ARG_OF_PERICENTER":"44.3318","OBJECT_TYPE":"PAYLOAD","APOAPSIS":"540.988","MEAN_MOTION":"15.08843833","CENTER_NAME":"EARTH","LAUNCH_DATE":"2022-08-10","INCLINATION":"53.2173","MEAN_MOTION_DOT":"-0.00028044","OBJECT_ID":"2022-097AK","OBJECT_NAME":"STARLINK-4545","TLE_LINE2":"2 53421  53.2173 211.9537 0001813  44.3318 132.6251 15.08843833 13278","REV_AT_EPOCH":"1327","COUNTRY_CODE":"US","CLASSIFICATION_TYPE":"U","PERIOD":"95.437"},{"OBJECT_TYPE":"PAYLOAD","ARG_OF_PERICENTER":"42.1570","TIME_SYSTEM":"UTC","SITE":"AFETR","MEAN_ANOMALY":"214.7840","SEMIMAJOR_AXIS":"6917.852","FILE":"3639255","LAUNCH_DATE":"2022-08-10","MEAN_MOTION":"15.08849186","CENTER_NAME":"EARTH","APOAPSIS":"541.038","OBJECT_NAME":"STARLINK-4546","TLE_LINE2":"2 53422  53.2188 211.9558 0001909  42.1570 214.7840 15.08849186 13273","OBJECT_ID":"2022-097AL","INCLINATION":"53.2188","MEAN_MOTION_DOT":"-0.00037673","PERIOD":"95.437","CLASSIFICATION_TYPE":"U","REV_AT_EPOCH":"1327","COUNTRY_CODE":"US","ELEMENT_SET_NO":"999","TLE_LINE1":"1 53422U 22097AL  22305.00002315 -.00037673  00000-0 -23607-2 0  9997","PERIAPSIS":"538.397","EPHEMERIS_TYPE":"0","REF_FRAME":"TEME","BSTAR":"-0.00236070000000","ECCENTRICITY":"0.00019090","RCS_SIZE":"LARGE","DECAY_DATE":null,"NORAD_CAT_ID":"53422","RA_OF_ASC_NODE":"211.9558","MEAN_MOTION_DDOT":"0.0000000000000","GP_ID":"216588874","EPOCH":"2022-11-01T00:00:02.000160","MEAN_ELEMENT_THEORY":"SGP4"},{"MEAN_ELEMENT_THEORY":"SGP4","RA_OF_ASC_NODE":"211.9526","GP_ID":"216588886","MEAN_MOTION_DDOT":"0.0000000000000","EPOCH":"2022-11-01T00:00:02.000160","ECCENTRICITY":"0.00018400","NORAD_CAT_ID":"53423","DECAY_DATE":null,"RCS_SIZE":"LARGE","ELEMENT_SET_NO":"999","TLE_LINE1":"1 53423U 22097AM  22305.00002315 -.00041851  00000-0 -26254-2 0  9992","EPHEMERIS_TYPE":"0","PERIAPSIS":"538.416","REF_FRAME":"TEME","BSTAR":"-0.00262540000000","PERIOD":"95.436","CLASSIFICATION_TYPE":"U","COUNTRY_CODE":"US","REV_AT_EPOCH":"1327","TLE_LINE2":"2 53423  53.2177 211.9526 0001840  46.1897 150.7252 15.08858624 13270","OBJECT_NAME":"STARLINK-4539","OBJECT_ID":"2022-097AM","MEAN_MOTION_DOT":"-0.00041851","INCLINATION":"53.2177","LAUNCH_DATE":"2022-08-10","CENTER_NAME":"EARTH","MEAN_MOTION":"15.08858624","APOAPSIS":"540.961","ARG_OF_PERICENTER":"46.1897","OBJECT_TYPE":"PAYLOAD","SITE":"AFETR","TIME_SYSTEM":"UTC","MEAN_ANOMALY":"150.7252","FILE":"3639255","SEMIMAJOR_AXIS":"6917.823"}];
